GALAXY 25 (G-25)        
1 24812U 97026A   23066.56609389 -.00000028  00000+0  00000+0 0  9993
2 24812   4.3481  81.0005 0008528 313.1804   0.4476  0.99036460 94355
INTELSAT 5 (IS-5)       
1 24916U 97046A   23066.30706039 -.00000059  00000+0  00000+0 0  9996
2 24916   7.7897  59.1679 0003439 258.2047 124.0547  1.00271932 93613
GALAXY 11 (G-11)        
1 26038U 99071A   23066.61412170 -.00000160  00000+0  00000+0 0  9990
2 26038   3.6887  84.6305 0001051 338.3676 230.0534  1.00271638 85077
INTELSAT 9 (IS-9)       
1 26451U 00043A   23066.42419885 -.00000284  00000+0  00000+0 0  9996
2 26451   7.7743  59.3492 0002318 275.4940 292.7442  1.00272168 32131
INTELSAT 1R (IS-1R)     
1 26608U 00072A   23066.84957495 -.00000135  00000+0  00000+0 0  9997
2 26608   5.0812  77.2057 0000960 344.5608 206.4694  1.00271833 29314
INTELSAT 10 (IS-10)     
1 26766U 01019A   23066.81144858  .00000038  00000+0  00000+0 0  9993
2 26766   6.2024  71.0549 0003069 282.5261 281.5835  1.00272291 79926
INTELSAT 901 (IS-901)   
1 26824U 01024A   23066.77056828 -.00000202  00000+0  00000+0 0  9992
2 26824   0.0376 262.0139 0000981  94.2401  58.8581  1.00271004 79580
INTELSAT 902 (IS-902)   
1 26900U 01039A   23066.47927774 -.00000281  00000+0  00000+0 0  9994
2 26900   3.0684  86.0614 0001917 263.1323 298.1575  1.00272904 78684
INTELSAT 904 (IS-904)   
1 27380U 02007A   23066.48302583 -.00000212  00000+0  00000+0 0  9993
2 27380   3.8949  83.0977 0003281 270.7755 315.4418  1.00272670 39751
DIRECTV 5 (TEMPO 1)     
1 27426U 02023A   23067.50347779 -.00000053  00000+0  00000+0 0  9995
2 27426   1.7977  90.0859 0003431 264.0525 242.9236  1.00272629 76303
INTELSAT 905 (IS-905)   
1 27438U 02027A   23066.41252981 -.00000183  00000+0  00000+0 0  9995
2 27438   3.7178  83.8075 0002727 256.2108 308.8506  1.00273198 39356
GALAXY 3C (G-3C)        
1 27445U 02030A   23067.04400432 -.00000150  00000+0  00000+0 0  9997
2 27445   0.6390  92.0649 0000571 279.4407  74.9574  1.00272478 75940
INTELSAT 906 (IS-906)   
1 27513U 02041A   23067.07827402  .00000017  00000+0  00000+0 0  9999
2 27513   2.7402  87.4354 0002707 247.6115 282.7687  1.00271771 74960
GALAXY 12 (G-12)        
1 27715U 03013B   23066.53523753  .00000060  00000+0  00000+0 0  9993
2 27715   3.9282  82.7748 0002320 277.3356 228.5532  1.00273008 40084
GALAXY 23 (G-23)        
1 27854U 03034A   23067.03886160  .00000015  00000+0  00000+0 0  9990
2 27854   0.1012 100.8047 0002736 250.7231  66.9288  1.00272570 76545
GALAXY 13 (HORIZONS-1)  
1 27954U 03044A   23066.53567337  .00000048  00000+0  00000+0 0  9994
2 27954   0.0286 243.8653 0001767 112.3355 234.5832  1.00272317 71140
INTELSAT 10-02          
1 28358U 04022A   23066.40257677 -.00000011  00000+0  00000+0 0  9990
2 28358   0.0432 268.9721 0001053  87.0190 312.7931  1.00272078 68531
XM-3 (RHYTHM)           
1 28626U 05008A   23066.52271648 -.00000204  00000+0  00000+0 0  9994
2 28626   0.0178 176.0660 0000162 313.1270 138.8393  1.00265441 30612
DIRECTV 8               
1 28659U 05019A   23066.60897897  .00000002  00000+0  00000+0 0  9996
2 28659   0.0176 142.1849 0003108 212.0042 271.0359  1.00272855 65062
GALAXY 28 (G-28)        
1 28702U 05022A   23067.48319686 -.00000183  00000+0  00000+0 0  9992
2 28702   0.2059  91.4377 0003150 260.9978 258.4070  1.00271393 64820
GALAXY 14 (G-14)        
1 28790U 05030A   23067.03035330  .00000158  00000+0  00000+0 0  9991
2 28790   1.9290  89.3205 0002082 257.0485 222.9234  1.00274547 64294
GALAXY 15 (G-15)        
1 28884U 05041A   23067.04104072 -.00000064  00000+0  00000+0 0  9995
2 28884   0.4840  92.4789 0004105 236.2086 101.8531  1.00321851 63609
SPACEWAY 2              
1 28903U 05046B   23067.03528785  .00000106  00000+0  00000+0 0  9998
2 28903   2.5077  85.3010 0000461 237.2265  76.7091  1.00271776 63493
GALAXY 16 (G-16)        
1 29236U 06023A   23066.61290139 -.00000126  00000+0  00000+0 0  9999
2 29236   0.0565 268.2635 0002992  89.3762 289.0390  1.00272255 60965
DIRECTV 9S              
1 29494U 06043A   23067.04278402 -.00000112  00000+0  00000+0 0  9999
2 29494   0.0104 129.7272 0003270 224.4781  85.4631  1.00272542 60102
XM-4 (BLUES)            
1 29520U 06049A   23067.05516142 -.00000255  00000+0  00000+0 0  9990
2 29520   0.1064 297.7777 0000936  38.7140 169.7845  1.00275303 59991
GALAXY 17 (G-17)        
1 31307U 07016B   23067.04478881 -.00000173  00000+0  00000+0 0  9996
2 31307   0.0125 130.9147 0001411 192.2570 127.4314  1.00271410 58070
DIRECTV 10              
1 31862U 07032A   23067.47457367 -.00000101  00000+0  00000+0 0  9994
2 31862   0.0452 316.2767 0000296   7.8255 269.8452  1.00274321 57401
SPACEWAY 3              
1 32018U 07036A   23066.61377306 -.00000151  00000+0  00000+0 0  9996
2 32018   0.8920  90.7483 0000433 251.6426 308.6604  1.00273922 34541
INTELSAT 11 (IS-11)     
1 32253U 07044B   23067.05437694 -.00000267  00000+0  00000+0 0  9990
2 32253   0.4577  93.4034 0003134 260.3070 148.3297  1.00270603 56523
HORIZONS-2              
1 32388U 07063B   23067.42405255 -.00000251  00000+0  00000+0 0  9992
2 32388   0.0200 202.2628 0002356 162.1892 240.2602  1.00271156 55879
DIRECTV 11              
1 32729U 08013A   23067.04313267 -.00000124  00000+0  00000+0 0  9995
2 32729   0.0496 347.6471 0000119 172.5199 281.6340  1.00272311 54933
GALAXY 18 (G-18)        
1 32951U 08024A   23067.03842578  .00000026  00000+0  00000+0 0  9995
2 32951   0.0205 200.0609 0003004 155.1228  61.1181  1.00274656 54083
INTELSAT 25 (IS-25)     
1 33153U 08034A   23066.98490657 -.00000223  00000+0  00000+0 0  9991
2 33153   0.0170 155.7471 0003022 198.5749 134.1780  1.00269050 53639
GALAXY 19 (G-19)        
1 33376U 08045A   23066.61333721 -.00000138  00000+0  00000+0 0  9993
2 33376   0.0247 163.9815 0003010 196.6158 288.2668  1.00269550 52892
FM-5                    
1 35493U 09034A   23067.04574762 -.00000199  00000+0  00000+0 0  9991
2 35493   0.0190 244.0726 0000699 331.2223 240.5229  1.00271403 49972
INTELSAT 14 (IS-14)     
1 36097U 09064A   23066.50396708 -.00000273  00000+0  00000+0 0  9990
2 36097   0.0272 145.6722 0002242 218.7255 296.9973  1.00268894 48594
INTELSAT 15 (IS-15)     
1 36106U 09067A   23067.48965023 -.00000182  00000+0  00000+0 0  9993
2 36106   0.0098 212.2926 0002428 148.4789  66.5570  1.00270892 48602
DIRECTV 12              
1 36131U 09075A   23067.04243536 -.00000102  00000+0  00000+0 0  9992
2 36131   0.0271 268.0754 0000564  53.3622 116.5768  1.00274638 48382
INTELSAT 16 (IS-16)     
1 36397U 10006A   23067.49101175 -.00000242  00000+0  00000+0 0  9998
2 36397   0.0132 178.8546 0002038 188.2227 259.4138  1.00268520 47713
XM-5                    
1 37185U 10053A   23067.46659392 -.00000020  00000+0  00000+0 0  9996
2 37185   0.0321 271.8113 0001102 305.8573   0.9809  1.00269868 45443
INTELSAT 17 (IS-17)     
1 37238U 10065B   23067.07827402  .00000000  00000+0  00000+0 0  9991
2 37238   0.0161 183.1242 0002727 170.8077 265.7330  1.00270997 44911
INTELSAT NEW DAWN       
1 37392U 11016A   23066.56748852  .00000156  00000+0  00000+0 0  9995
2 37392   0.0113 151.9793 0001267 211.2095  38.9035  1.00271869 41278
INTELSAT 18 (IS-18)     
1 37834U 11056A   23067.54841144  .00000056  00000+0  00000+0 0  9996
2 37834   0.0116 107.3075 0002007 242.2345 193.8617  1.00273439 41840
INTELSAT 22 (IS-22)     
1 38098U 12011A   23067.07271688 -.00000057  00000+0  00000+0 0  9991
2 38098   0.0044 186.6330 0002603 166.3090 270.8250  1.00271640 40044
INTELSAT 19 (IS-19)     
1 38356U 12030A   23066.89527475 -.00000056  00000+0  00000+0 0  9995
2 38356   0.0248 160.1581 0003069 190.3492 303.1360  1.00269881 38438
INTELSAT 20 (IS-20)     
1 38740U 12043A   23067.07271688 -.00000023  00000+0  00000+0 0  9993
2 38740   0.0221 138.1189 0002182  36.4474  85.6030  1.00270998 38820
INTELSAT 21 (IS-21)     
1 38749U 12045A   23067.46553817 -.00000282  00000+0  00000+0 0  9991
2 38749   0.0201 127.8570 0002232 224.8122 282.8101  1.00271141 38635
INTELSAT 23 (IS-23)     
1 38867U 12057A   23066.47866758 -.00000284  00000+0  00000+0 0  9998
2 38867   0.0366 251.5099 0001462  87.9702 304.7601  1.00276686 37935
FM-6                    
1 39360U 13058A   23066.94066917 -.00000015  00000+0  00000+0 0  9992
2 39360   0.0081 148.6560 0000433  68.5812 170.6012  1.00269774 34057
INTELSAT 30 (IS-30)     
1 40271U 14062A   23064.39074649 -.00000154  00000+0  00000+0 0  9993
2 40271   0.0267 146.1096 0001934 329.6977  92.6886  1.00269696 30559
DIRECTV 14              
1 40333U 14078B   23066.61290139 -.00000125  00000+0  00000+0 0  9998
2 40333   0.0124  90.4195 0000218 172.4728  23.5774  1.00270324 30057
DIRECTV 15              
1 40663U 15026A   23067.47457354 -.00000100  00000+0  00000+0 0  9990
2 40663   0.0137 127.3664 0000290 145.7489 320.7583  1.00269888 28538
SKY MEXICO-1            
1 40664U 15026B   23067.48939288 -.00000232  00000+0  00000+0 0  9999
2 40664   0.0209 133.9125 0002252 233.6474 255.7835  1.00268123 28533
INTELSAT 34 (IS-34)     
1 40874U 15039A   23067.50481105 -.00000283  00000+0  00000+0 0  9995
2 40874   0.0343 282.7278 0000490 302.4257  67.0015  1.00269883 27620
INTELSAT 31 (IS-31)     
1 41581U 16035A   23064.41783953 -.00000154  00000+0  00000+0 0  9998
2 41581   0.0242 227.8065 0002643 342.2123   8.2246  1.00270878 24664
INTELSAT 36 (IS-36)     
1 41747U 16053A   23067.07271688 -.00000022  00000+0  00000+0 0  9998
2 41747   0.0179 139.1290 0001006 225.5477 255.5099  1.00268626 23940
INTELSAT 33E (IS-33E)   
1 41748U 16053B   23067.07827402  .00000050  00000+0  00000+0 0  9990
2 41748   0.0237 145.1569 0001655 220.0120 248.5376  1.00272128 24210
INTELSAT 32E (IS-32E)   
1 41945U 17007B   23067.05428977 -.00000268  00000+0  00000+0 0  9993
2 41945   0.0170 133.0203 0000155 164.9937 203.8274  1.00270008 22249
INTELSAT 35E (IS-35E)   
1 42818U 17041A   23067.05603306 -.00000237  00000+0  00000+0 0  9998
2 42818   0.0132 130.0763 0002109 219.3795 161.7001  1.00272705 20809
INTELSAT 37E (IS-37E)   
1 42950U 17059A   23067.13243740 -.00000139  00000+0  00000+0 0  9996
2 42950   0.0095 132.1119 0002645 215.7404 207.3693  1.00270876 20041
AZERSPACE 2 (IS-38)     
1 43632U 18074A   23066.43660545  .00000136  00000+0  00000+0 0  9996
2 43632   0.0198 146.4956 0001505 203.4550  17.1930  1.00271636 16434
HORIZONS-3E             
1 43633U 18074B   23066.85436979 -.00000030  00000+0  00000+0 0  9999
2 43633   0.0216 132.8099 0001063 193.7754 315.2888  1.00269444 16314
AT&T T-16               
1 44333U 19034A   23067.43972044 -.00000112  00000+0  00000+0 0  9998
2 44333   0.0252 158.1234 0000583  54.9304  10.2564  1.00266862 13624
INTELSAT 39 (IS-39)     
1 44476U 19049B   23067.07827402  .00000035  00000+0  00000+0 0  9992
2 44476   0.0243 166.9601 0001433 347.0222 101.6496  1.00268915 13122
GALAXY 30 (G-30)        
1 46114U 20056C   23066.53602203  .00000037  00000+0  00000+0 0  9995
2 46114   0.0189 137.3718 0002093 222.9533 232.6169  1.00271888  9289
GALAXY 33 (G-33)        
1 54026U 22128A   23067.03642098  .00000081  00000+0  00000+0 0  9999
2 54026   0.0225 155.3658 0001910 191.6963  58.5161  1.00270253  1745
GALAXY 34 (G-34)        
1 54027U 22128B   23066.89912453  .00000060  00000+0  00000+0 0  9995
2 54027   0.0105 144.0392 0002900 276.6519 299.3179  1.00273328  1902
GALAXY 31 (G-31)        
1 54243U 22153A   23067.26538292  .00000015  00000+0  00000+0 0  9990
2 54243   0.0133 154.9510 0003406 143.9283 201.3452  1.00272669  1152
GALAXY 32 (G-32)        
1 54244U 22153B   23067.04478881 -.00000173  00000+0  00000+0 0  9990
2 54244   0.0369  71.5730 0002953 284.0649  94.9421  1.00271238  1165
GALAXY 35 (G-35)        
1 54741U 22170A   23067.50929255 -.00000188  00000+0  00000+0 0  9994
2 54741   0.0446 314.3468 0003015  84.3373 210.1296  1.00837170   900
GALAXY 36 (G-36)        
1 54742U 22170B   23067.28242286 -.00000183  00000+0  00000+0 0  9997
2 54742   0.0114 125.8258 0002393 290.5050 122.0400  1.00273722   912
